CCSDS_OMM_VERS = 2.0
CREATION_DATE  = 
ORIGINATOR     = 

OBJECT_NAME    = STARLINK-35907
OBJECT_ID      = 2025-263P
CENTER_NAME    = EARTH
REF_FRAME      = TEME
TIME_SYSTEM    = UTC
MEAN_ELEMENT_THEORY = SGP/SGP4

EPOCH          = 2025-12-03T04:00:01.998720
MEAN_MOTION    = 15.72800625
ECCENTRICITY   = .0001543
INCLINATION    = 42.9988
RA_OF_ASC_NODE = 181.5967
ARG_OF_PERICENTER = 262.1092
MEAN_ANOMALY   = 338.0076

EPHEMERIS_TYPE = 0
CLASSIFICATION_TYPE = U
NORAD_CAT_ID   = 66498
ELEMENT_SET_NO = 999
REV_AT_EPOCH   = 409
BSTAR          = -.16017E-1
MEAN_MOTION_DOT = -.197497E-1
MEAN_MOTION_DDOT = 0

CCSDS_OMM_VERS = 2.0
CREATION_DATE  = 
ORIGINATOR     = 

OBJECT_NAME    = STARLINK-35816
OBJECT_ID      = 2025-263Q
CENTER_NAME    = EARTH
REF_FRAME      = TEME
TIME_SYSTEM    = UTC
MEAN_ELEMENT_THEORY = SGP/SGP4

EPOCH          = 2025-12-03T04:00:01.998720
MEAN_MOTION    = 15.72797754
ECCENTRICITY   = .0001539
INCLINATION    = 42.9990
RA_OF_ASC_NODE = 181.5871
ARG_OF_PERICENTER = 269.1733
MEAN_ANOMALY   = 334.7807

EPHEMERIS_TYPE = 0
CLASSIFICATION_TYPE = U
NORAD_CAT_ID   = 66499
ELEMENT_SET_NO = 999
REV_AT_EPOCH   = 409
BSTAR          = -.15993E-1
MEAN_MOTION_DOT = -.1972193E-1
MEAN_MOTION_DDOT = 0

CCSDS_OMM_VERS = 2.0
CREATION_DATE  = 
ORIGINATOR     = 

OBJECT_NAME    = STARLINK-35894
OBJECT_ID      = 2025-263R
CENTER_NAME    = EARTH
REF_FRAME      = TEME
TIME_SYSTEM    = UTC
MEAN_ELEMENT_THEORY = SGP/SGP4

EPOCH          = 2025-12-03T04:00:01.998720
MEAN_MOTION    = 15.72461274
ECCENTRICITY   = .0001465
INCLINATION    = 42.9990
RA_OF_ASC_NODE = 181.5928
ARG_OF_PERICENTER = 265.4862
MEAN_ANOMALY   = 336.3345

EPHEMERIS_TYPE = 0
CLASSIFICATION_TYPE = U
NORAD_CAT_ID   = 66500
ELEMENT_SET_NO = 999
REV_AT_EPOCH   = 409
BSTAR          = -.20559E-1
MEAN_MOTION_DOT = -.247618E-1
MEAN_MOTION_DDOT = 0

CCSDS_OMM_VERS = 2.0
CREATION_DATE  = 
ORIGINATOR     = 

OBJECT_NAME    = STARLINK-35897
OBJECT_ID      = 2025-263S
CENTER_NAME    = EARTH
REF_FRAME      = TEME
TIME_SYSTEM    = UTC
MEAN_ELEMENT_THEORY = SGP/SGP4

EPOCH          = 2025-12-03T04:00:01.998720
MEAN_MOTION    = 15.72803319
ECCENTRICITY   = .0001453
INCLINATION    = 42.9990
RA_OF_ASC_NODE = 181.5822
ARG_OF_PERICENTER = 263.8302
MEAN_ANOMALY   = 342.0411

EPHEMERIS_TYPE = 0
CLASSIFICATION_TYPE = U
NORAD_CAT_ID   = 66501
ELEMENT_SET_NO = 999
REV_AT_EPOCH   = 409
BSTAR          = -.16084E-1
MEAN_MOTION_DOT = -.1982357E-1
MEAN_MOTION_DDOT = 0

CCSDS_OMM_VERS = 2.0
CREATION_DATE  = 
ORIGINATOR     = 

OBJECT_NAME    = STARLINK-35922
OBJECT_ID      = 2025-263T
CENTER_NAME    = EARTH
REF_FRAME      = TEME
TIME_SYSTEM    = UTC
MEAN_ELEMENT_THEORY = SGP/SGP4

EPOCH          = 2025-12-03T04:00:01.998720
MEAN_MOTION    = 15.72801890
ECCENTRICITY   = .0001462
INCLINATION    = 42.9991
RA_OF_ASC_NODE = 181.5673
ARG_OF_PERICENTER = 266.8681
MEAN_ANOMALY   = 344.7501

EPHEMERIS_TYPE = 0
CLASSIFICATION_TYPE = U
NORAD_CAT_ID   = 66502
ELEMENT_SET_NO = 999
REV_AT_EPOCH   = 409
BSTAR          = -.16015E-1
MEAN_MOTION_DOT = -.197482E-1
MEAN_MOTION_DDOT = 0

CCSDS_OMM_VERS = 2.0
CREATION_DATE  = 
ORIGINATOR     = 

OBJECT_NAME    = STARLINK-35917
OBJECT_ID      = 2025-263U
CENTER_NAME    = EARTH
REF_FRAME      = TEME
TIME_SYSTEM    = UTC
MEAN_ELEMENT_THEORY = SGP/SGP4

EPOCH          = 2025-12-02T16:00:03.000096
MEAN_MOTION    = 15.74924478
ECCENTRICITY   = .00012359
INCLINATION    = 42.9982
RA_OF_ASC_NODE = 184.5859
ARG_OF_PERICENTER = 259.7629
MEAN_ANOMALY   = 39.3845

EPHEMERIS_TYPE = 0
CLASSIFICATION_TYPE = U
NORAD_CAT_ID   = 66503
ELEMENT_SET_NO = 999
REV_AT_EPOCH   = 401
BSTAR          = -.14593096E-1
MEAN_MOTION_DOT = -.1934021E-1
MEAN_MOTION_DDOT = 0

CCSDS_OMM_VERS = 2.0
CREATION_DATE  = 
ORIGINATOR     = 

OBJECT_NAME    = STARLINK-35916
OBJECT_ID      = 2025-263V
CENTER_NAME    = EARTH
REF_FRAME      = TEME
TIME_SYSTEM    = UTC
MEAN_ELEMENT_THEORY = SGP/SGP4

EPOCH          = 2025-12-03T04:00:01.998720
MEAN_MOTION    = 15.54330380
ECCENTRICITY   = .0001499
INCLINATION    = 43.0079
RA_OF_ASC_NODE = 182.0234
ARG_OF_PERICENTER = 283.6008
MEAN_ANOMALY   = 144.1904

EPHEMERIS_TYPE = 0
CLASSIFICATION_TYPE = U
NORAD_CAT_ID   = 66504
ELEMENT_SET_NO = 999
REV_AT_EPOCH   = 409
BSTAR          = -.4291E-1
MEAN_MOTION_DOT = -.2552599E-1
MEAN_MOTION_DDOT = 0

CCSDS_OMM_VERS = 2.0
CREATION_DATE  = 
ORIGINATOR     = 

OBJECT_NAME    = STARLINK-34766
OBJECT_ID      = 2025-263W
CENTER_NAME    = EARTH
REF_FRAME      = TEME
TIME_SYSTEM    = UTC
MEAN_ELEMENT_THEORY = SGP/SGP4

EPOCH          = 2025-12-03T04:00:01.998720
MEAN_MOTION    = 15.72804362
ECCENTRICITY   = .0001441
INCLINATION    = 42.9989
RA_OF_ASC_NODE = 181.5771
ARG_OF_PERICENTER = 261.0845
MEAN_ANOMALY   = 346.6975

EPHEMERIS_TYPE = 0
CLASSIFICATION_TYPE = U
NORAD_CAT_ID   = 66505
ELEMENT_SET_NO = 999
REV_AT_EPOCH   = 409
BSTAR          = -.16039E-1
MEAN_MOTION_DOT = -.1977628E-1
MEAN_MOTION_DDOT = 0

CCSDS_OMM_VERS = 2.0
CREATION_DATE  = 
ORIGINATOR     = 

OBJECT_NAME    = STARLINK-34765
OBJECT_ID      = 2025-263X
CENTER_NAME    = EARTH
REF_FRAME      = TEME
TIME_SYSTEM    = UTC
MEAN_ELEMENT_THEORY = SGP/SGP4

EPOCH          = 2025-12-03T04:00:01.998720
MEAN_MOTION    = 15.72805839
ECCENTRICITY   = .0001439
INCLINATION    = 42.9989
RA_OF_ASC_NODE = 181.5733
ARG_OF_PERICENTER = 263.4658
MEAN_ANOMALY   = 346.2326

EPHEMERIS_TYPE = 0
CLASSIFICATION_TYPE = U
NORAD_CAT_ID   = 66506
ELEMENT_SET_NO = 999
REV_AT_EPOCH   = 409
BSTAR          = -.16058E-1
MEAN_MOTION_DOT = -.1979804E-1
MEAN_MOTION_DDOT = 0

CCSDS_OMM_VERS = 2.0
CREATION_DATE  = 
ORIGINATOR     = 

OBJECT_NAME    = STARLINK-34767
OBJECT_ID      = 2025-263Y
CENTER_NAME    = EARTH
REF_FRAME      = TEME
TIME_SYSTEM    = UTC
MEAN_ELEMENT_THEORY = SGP/SGP4

EPOCH          = 2025-12-03T04:00:01.998720
MEAN_MOTION    = 15.72798262
ECCENTRICITY   = .0001568
INCLINATION    = 42.9990
RA_OF_ASC_NODE = 181.5621
ARG_OF_PERICENTER = 270.8309
MEAN_ANOMALY   = 342.7042

EPHEMERIS_TYPE = 0
CLASSIFICATION_TYPE = U
NORAD_CAT_ID   = 66507
ELEMENT_SET_NO = 999
REV_AT_EPOCH   = 409
BSTAR          = -.15969E-1
MEAN_MOTION_DOT = -.19696E-1
MEAN_MOTION_DDOT = 0

CCSDS_OMM_VERS = 2.0
CREATION_DATE  = 
ORIGINATOR     = 

OBJECT_NAME    = STARLINK-35608
OBJECT_ID      = 2025-263Z
CENTER_NAME    = EARTH
REF_FRAME      = TEME
TIME_SYSTEM    = UTC
MEAN_ELEMENT_THEORY = SGP/SGP4

EPOCH          = 2025-12-03T04:00:01.998720
MEAN_MOTION    = 15.72801758
ECCENTRICITY   = .0001569
INCLINATION    = 42.9989
RA_OF_ASC_NODE = 181.5482
ARG_OF_PERICENTER = 269.3027
MEAN_ANOMALY   = 349.9824

EPHEMERIS_TYPE = 0
CLASSIFICATION_TYPE = U
NORAD_CAT_ID   = 66508
ELEMENT_SET_NO = 999
REV_AT_EPOCH   = 409
BSTAR          = -.16016E-1
MEAN_MOTION_DOT = -.1975002E-1
MEAN_MOTION_DDOT = 0

CCSDS_OMM_VERS = 2.0
CREATION_DATE  = 
ORIGINATOR     = 

OBJECT_NAME    = STARLINK-35598
OBJECT_ID      = 2025-263AA
CENTER_NAME    = EARTH
REF_FRAME      = TEME
TIME_SYSTEM    = UTC
MEAN_ELEMENT_THEORY = SGP/SGP4

EPOCH          = 2025-12-03T04:00:01.998720
MEAN_MOTION    = 15.72792583
ECCENTRICITY   = .0001592
INCLINATION    = 42.9989
RA_OF_ASC_NODE = 181.5271
ARG_OF_PERICENTER = 268.7173
MEAN_ANOMALY   = 358.2406

EPHEMERIS_TYPE = 0
CLASSIFICATION_TYPE = U
NORAD_CAT_ID   = 66509
ELEMENT_SET_NO = 999
REV_AT_EPOCH   = 409
BSTAR          = -.15907E-1
MEAN_MOTION_DOT = -.196244E-1
MEAN_MOTION_DDOT = 0

