STARLINK-35907          
1 66498U 25263P   25337.16668980 -.01974970  00000+0 -16017-1 0  9999
2 66498  42.9988 181.5967 0001543 262.1092 338.0076 15.72800625  4093
STARLINK-35816          
1 66499U 25263Q   25337.16668980 -.01972193  00000+0 -15993-1 0  9997
2 66499  42.9990 181.5871 0001539 269.1733 334.7807 15.72797754  4098
STARLINK-35894          
1 66500U 25263R   25337.16668980 -.02476180  00000+0 -20559-1 0  9990
2 66500  42.9990 181.5928 0001465 265.4862 336.3345 15.72461274  4094
STARLINK-35897          
1 66501U 25263S   25337.16668980 -.01982357  00000+0 -16084-1 0  9996
2 66501  42.9990 181.5822 0001453 263.8302 342.0411 15.72803319  4094
STARLINK-35922          
1 66502U 25263T   25337.16668980 -.01974820  00000+0 -16015-1 0  9997
2 66502  42.9991 181.5673 0001462 266.8681 344.7501 15.72801890  4094
STARLINK-35917          
1 66503U 25263U   25336.66670139 -.01934021  00000+0 -14593-1 0  9999
2 66503  42.9982 184.5859 0001235 259.7629  39.3845 15.74924478  4015
STARLINK-35916          
1 66504U 25263V   25337.16668980 -.02552599  00000+0 -42910-1 0  9998
2 66504  43.0079 182.0234 0001499 283.6008 144.1904 15.54330380  4094
STARLINK-34766          
1 66505U 25263W   25337.16668980 -.01977628  00000+0 -16039-1 0  9995
2 66505  42.9989 181.5771 0001441 261.0845 346.6975 15.72804362  4092
STARLINK-34765          
1 66506U 25263X   25337.16668980 -.01979804  00000+0 -16058-1 0  9995
2 66506  42.9989 181.5733 0001439 263.4658 346.2326 15.72805839  4092
STARLINK-34767          
1 66507U 25263Y   25337.16668980 -.01969600  00000+0 -15969-1 0  9999
2 66507  42.9990 181.5621 0001568 270.8309 342.7042 15.72798262  4096
STARLINK-35608          
1 66508U 25263Z   25337.16668980 -.01975002  00000+0 -16016-1 0  9997
2 66508  42.9989 181.5482 0001569 269.3027 349.9824 15.72801758  4093
STARLINK-35598          
1 66509U 25263AA  25337.16668980 -.01962440  00000+0 -15907-1 0  9998
2 66509  42.9989 181.5271 0001592 268.7173 358.2406 15.72792583  4095
